[{"name":"LEMUR-2-ALISIA","line1":"1 62706U 25009DB  26177.45726566  .00009344  00000+0  70047-3 0  9991","line2":"2 62706  97.6935 259.5625 0002788 181.4497 178.6720 15.02891160101551"},{"name":"LEMUR-2-ROUNDTRIPPER","line1":"1 62711U 25009DG  26177.54205326  .00008530  00000+0  62237-3 0  9991","line2":"2 62711  97.7249 260.2086 0005564 108.6489 251.5341 15.03935724 79036"},{"name":"LEMUR-2-MYNAMEISJEFF","line1":"1 62712U 25009DH  26176.54243399  .00010532  00000+0  76764-3 0  9998","line2":"2 62712  97.7294 259.5966 0004029 135.3275 224.8275 15.03916865 78886"},{"name":"LEMUR-2-LEIA-PHILIP","line1":"1 63246U 25052AN  26177.42551552  .00001263  00000+0  11377-3 0  9990","line2":"2 63246  97.6821  69.2207 0003659 179.1209 181.0020 14.97335819 70058"},{"name":"LEMUR-2-LIA-MARTIN","line1":"1 63248U 25052AQ  26177.42746218  .00005005  00000+0  43012-3 0  9996","line2":"2 63248  97.6877  69.7111 0003782 140.8618 219.2879 14.97867972 70063"},{"name":"LEMUR-2-DELOITTE-1","line1":"1 63259U 25052BB  26177.27143364  .00003640  00000+0  31585-3 0  9999","line2":"2 63259  97.6928  69.8882 0003194  77.7426 282.4154 14.97666425 70057"},{"name":"LEMUR-2-EMERSONROSE","line1":"1 63261U 25052BD  26177.50468461  .00004159  00000+0  34675-3 0  9995","line2":"2 63261  97.6879  70.6924 0002057  78.2557 281.8897 14.99141188 70132"},{"name":"LEMUR-2-MARACHE-FRAN","line1":"1 63262U 25052BE  26176.94000321  .00005246  00000+0  42451-3 0  9999","line2":"2 63262  97.6926  70.4715 0004565 347.4009  12.7100 15.00173475 70079"},{"name":"LEMUR-2-THEFALCONER","line1":"1 63264U 25052BG  26177.63327517  .00003738  00000+0  32613-3 0  9990","line2":"2 63264  97.6849  69.8535 0001546  16.3128 343.8143 14.97441860 70107"},{"name":"LEMUR-2-UNTITLED-SC","line1":"1 63351U 25061A   26177.21240887  .00004078  00000+0  23053-3 0  9991","line2":"2 63351  97.5637 152.5085 0017309 230.4277 129.5426 15.13531866 68954"},{"name":"LEMUR-2-ESPERANZA","line1":"1 63352U 25061B   26177.45343078  .00003483  00000+0  19697-3 0  9992","line2":"2 63352  97.5640 152.8432 0016934 228.6856 131.2918 15.13625257 68991"},{"name":"LEMUR-2-KREMPEL-BRO2","line1":"1 63353U 25061C   26177.47773312  .00004068  00000+0  22653-3 0  9999","line2":"2 63353  97.5688 153.4128 0018030 220.7181 139.2703 15.14063499 69015"},{"name":"LEMUR-2-THERMORAPTOR","line1":"1 63354U 25061D   26177.45930985  .00003552  00000+0  19786-3 0  9999","line2":"2 63354  97.5695 153.4720 0017758 219.4856 140.5083 15.14144668 69016"},{"name":"LEMUR-2-NEUROSPICY","line1":"1 63355U 25061E   26177.49635622  .00003716  00000+0  20635-3 0  9991","line2":"2 63355  97.5620 153.1274 0015532 222.7299 137.2726 15.14259614 69028"},{"name":"LEMUR-2-TILLINFINITY","line1":"1 63356U 25061F   26177.46197473  .00003713  00000+0  20271-3 0  9999","line2":"2 63356  97.5605 153.3905 0017049 210.2844 149.7404 15.14845789 69045"},{"name":"LEMUR-2-KREMPEL-BRO1","line1":"1 63357U 25061G   26177.43663451  .00003775  00000+0  20707-3 0  9993","line2":"2 63357  97.5607 153.2787 0017663 212.0024 148.0136 15.14651002 69033"},{"name":"LEMUR-2-LANGER2SPACE","line1":"1 63358U 25061H   26177.46498845  .00003775  00000+0  20902-3 0  9997","line2":"2 63358  97.5612 153.1172 0015461 220.8781 139.1292 15.14347612 69020"},{"name":"LEMUR-2-BALTO","line1":"1 63395U 25052BH  26176.65793103  .00006831  00000+0  55111-3 0  9999","line2":"2 63395  97.6920  70.1680 0006658  35.4862 324.6803 15.00175304 70038"},{"name":"LEMUR-2-KRISH","line1":"1 64561U 25135AK  26177.57066704  .00004860  00000+0  43524-3 0  9994","line2":"2 64561  97.7747 292.3827 0001120 101.0260 259.1087 14.96283594 55320"},{"name":"LEMUR-2-HUBBLE-4","line1":"1 64565U 25135AP  26176.24464968  .00001390  00000+0  13793-3 0  9995","line2":"2 64565  97.7646 290.0421 0002848 296.9282  63.1646 14.93362478 55075"},{"name":"LEMUR-2-SEJONG-2","line1":"1 64586U 25135BL  26177.59761851  .00005117  00000+0  45233-3 0  9993","line2":"2 64586  97.7692 292.5536 0002827 301.8916  58.2030 14.96767745 55352"},{"name":"LEMUR-2-HUBBLE-5","line1":"1 64840U 25135BT  26177.60010821  .00001904  00000+0  18324-3 0  9993","line2":"2 64840  97.7725 292.0415 0004302 318.1203  41.9687 14.94163036 55317"},{"name":"LEMUR-2-KARENDARRELL","line1":"1 64841U 25135BU  26177.58968683  .00008607  00000+0  69143-3 0  9991","line2":"2 64841  97.7681 293.7814 0010500 166.6422 193.5082 15.00241970 55423"},{"name":"LEMUR-2-LUCILLE-ROSE","line1":"1 65403U 25135BV  26177.29638442  .00007987  00000+0  64143-3 0  9996","line2":"2 65403  97.7748 293.5183 0012235 249.5106 110.4804 15.00260284 50004"},{"name":"LEMUR-2-AFFIE-WAUWIE","line1":"1 66295U 25248C   26177.67056752  .00022909  00000+0  84292-3 0  9999","line2":"2 66295  45.3937  63.5971 0007709 149.2516 210.8826 15.27531092 36048"},{"name":"LEMUR-2-DEANANDMAEVE","line1":"1 66678U 25276N   26177.72991576  .00006604  00000+0  31107-3 0  9994","line2":"2 66678  97.4217 251.0473 0004803 339.5015  20.6026 15.19843173 31864"},{"name":"LEMUR-2-STAS-GORBUK","line1":"1 66686U 25276W   26177.68082142  .00006050  00000+0  28833-3 0  9995","line2":"2 66686  97.4249 251.0532 0004112 340.4981  19.6096 15.19474149 31857"},{"name":"LEMUR-2-TEODOR","line1":"1 66768U 25276DG  26177.71997463  .00005568  00000+0  25310-3 0  9991","line2":"2 66768  97.4155 251.3401 0002383 107.2798 252.8699 15.21147471 31897"},{"name":"LEMUR-2-LAILA","line1":"1 66776U 25276DQ  26177.69250153  .00006194  00000+0  27936-3 0  9997","line2":"2 66776  97.4178 251.4397 0002674 122.2435 237.9060 15.21370052 31893"}]