OBJECT_NAME,OBJECT_ID,EPOCH,MEAN_MOTION,ECCENTRICITY,INCLINATION,RA_OF_ASC_NODE,ARG_OF_PERICENTER,MEAN_ANOMALY,EPHEMERIS_TYPE,CLASSIFICATION_TYPE,NORAD_CAT_ID,ELEMENT_SET_NO,REV_AT_EPOCH,BSTAR,MEAN_MOTION_DOT,MEAN_MOTION_DDOT
LEMUR-2-ALISIA,2025-009DB,2026-06-26T10:58:27.753024,15.02891160,.00027885,97.6935,259.5625,181.4497,178.6720,0,U,62706,999,10155,.70047162E-3,.9344E-4,0
LEMUR-2-ROUNDTRIPPER,2025-009DG,2026-06-26T13:00:33.401664,15.03935724,.00055647,97.7249,260.2086,108.6489,251.5341,0,U,62711,999,7903,.62236635E-3,.853E-4,0
LEMUR-2-MYNAMEISJEFF,2025-009DH,2026-06-25T13:01:06.296736,15.03916865,.0004029,97.7294,259.5966,135.3275,224.8275,0,U,62712,999,7888,.76764E-3,.10532E-3,0
LEMUR-2-LEIA-PHILIP,2025-052AN,2026-06-26T10:12:44.540928,14.97335819,.00036597,97.6821,69.2207,179.1209,181.0020,0,U,63246,999,7005,.11376793E-3,.1263E-4,0
LEMUR-2-LIA-MARTIN,2025-052AQ,2026-06-26T10:15:32.732352,14.97867972,.00037821,97.6877,69.7111,140.8618,219.2879,0,U,63248,999,7006,.43011853E-3,.5005E-4,0
LEMUR-2-DELOITTE-1,2025-052BB,2026-06-26T06:30:51.866496,14.97666425,.00031944,97.6928,69.8882,77.7426,282.4154,0,U,63259,999,7005,.31585027E-3,.364E-4,0
LEMUR-2-EMERSONROSE,2025-052BD,2026-06-26T12:06:44.750304,14.99141188,.00020577,97.6879,70.6924,78.2557,281.8897,0,U,63261,999,7013,.34675041E-3,.4159E-4,0
LEMUR-2-MARACHE-FRAN,2025-052BE,2026-06-25T22:33:36.277344,15.00173475,.00045654,97.6926,70.4715,347.4009,12.7100,0,U,63262,999,7007,.42450805E-3,.5246E-4,0
LEMUR-2-THEFALCONER,2025-052BG,2026-06-26T15:11:54.974688,14.97441860,.00015467,97.6849,69.8535,16.3128,343.8143,0,U,63264,999,7010,.32613254E-3,.3738E-4,0
LEMUR-2-UNTITLED-SC,2025-061A,2026-06-26T05:05:52.126368,15.13531866,.00173095,97.5637,152.5085,230.4277,129.5426,0,U,63351,999,6895,.23052981E-3,.4078E-4,0
LEMUR-2-ESPERANZA,2025-061B,2026-06-26T10:52:56.419392,15.13625257,.00169343,97.5640,152.8432,228.6856,131.2918,0,U,63352,999,6899,.19696558E-3,.3483E-4,0
LEMUR-2-KREMPEL-BRO2,2025-061C,2026-06-26T11:27:56.141568,15.14063499,.00180305,97.5688,153.4128,220.7181,139.2703,0,U,63353,999,6901,.22653237E-3,.4068E-4,0
LEMUR-2-THERMORAPTOR,2025-061D,2026-06-26T11:01:24.371040,15.14144668,.0017758,97.5695,153.4720,219.4856,140.5083,0,U,63354,999,6901,.19786268E-3,.3552E-4,0
LEMUR-2-NEUROSPICY,2025-061E,2026-06-26T11:54:45.177408,15.14259614,.00155322,97.5620,153.1274,222.7299,137.2726,0,U,63355,999,6902,.20635478E-3,.3716E-4,0
LEMUR-2-TILLINFINITY,2025-061F,2026-06-26T11:05:14.616672,15.14845789,.00170491,97.5605,153.3905,210.2844,149.7404,0,U,63356,999,6904,.20271217E-3,.3713E-4,0
LEMUR-2-KREMPEL-BRO1,2025-061G,2026-06-26T10:28:45.221664,15.14651002,.00176635,97.5607,153.2787,212.0024,148.0136,0,U,63357,999,6903,.20706957E-3,.3775E-4,0
LEMUR-2-LANGER2SPACE,2025-061H,2026-06-26T11:09:35.002080,15.14347612,.00154614,97.5612,153.1172,220.8781,139.1292,0,U,63358,999,6902,.20901615E-3,.3775E-4,0
LEMUR-2-BALTO,2025-052BH,2026-06-25T15:47:25.240992,15.00175304,.00066581,97.6920,70.1680,35.4862,324.6803,0,U,63395,999,7003,.55110671E-3,.6831E-4,0
LEMUR-2-KRISH,2025-135AK,2026-06-26T13:41:45.632256,14.96283594,.00011204,97.7747,292.3827,101.0260,259.1087,0,U,64561,999,5532,.43523835E-3,.486E-4,0
LEMUR-2-HUBBLE-4,2025-135AP,2026-06-25T05:52:17.732352,14.93362478,.0002848,97.7646,290.0421,296.9282,63.1646,0,U,64565,999,5507,.13793E-3,.139E-4,0
LEMUR-2-SEJONG-2,2025-135BL,2026-06-26T14:20:34.239264,14.96767745,.00028272,97.7692,292.5536,301.8916,58.2030,0,U,64586,999,5535,.45232967E-3,.5117E-4,0
LEMUR-2-HUBBLE-5,2025-135BT,2026-06-26T14:24:09.349344,14.94163036,.00043024,97.7725,292.0415,318.1203,41.9687,0,U,64840,999,5531,.18324156E-3,.1904E-4,0
LEMUR-2-KARENDARRELL,2025-135BU,2026-06-26T14:09:08.942112,15.00241970,.00105003,97.7681,293.7814,166.6422,193.5082,0,U,64841,999,5542,.69142853E-3,.8607E-4,0
LEMUR-2-LUCILLE-ROSE,2025-135BV,2026-06-26T07:06:47.613888,15.00260284,.00122359,97.7748,293.5183,249.5106,110.4804,0,U,65403,999,5000,.64143487E-3,.7987E-4,0
LEMUR-2-AFFIE-WAUWIE,2025-248C,2026-06-26T16:05:37.033728,15.27531092,.0007709,45.3937,63.5971,149.2516,210.8826,0,U,66295,999,3604,.84292E-3,.22909E-3,0
LEMUR-2-DEANANDMAEVE,2025-276N,2026-06-26T17:31:04.721664,15.19843173,.0004803,97.4217,251.0473,339.5015,20.6026,0,U,66678,999,3186,.31107E-3,.6604E-4,0
LEMUR-2-STAS-GORBUK,2025-276W,2026-06-26T16:20:22.970688,15.19474149,.0004112,97.4249,251.0532,340.4981,19.6096,0,U,66686,999,3185,.28833E-3,.605E-4,0
LEMUR-2-TEODOR,2025-276DG,2026-06-26T17:16:45.808032,15.21147471,.0002383,97.4155,251.3401,107.2798,252.8699,0,U,66768,999,3189,.2531E-3,.5568E-4,0
LEMUR-2-LAILA,2025-276DQ,2026-06-26T16:37:12.132192,15.21370052,.0002674,97.4178,251.4397,122.2435,237.9060,0,U,66776,999,3189,.27936E-3,.6194E-4,0
